[
  {
    "OBJECT_NAME": "STARLINK-30582",
    "OBJECT_ID": "2023-158J",
    "EPOCH": "2023-10-22T14:00:01.000224",
    "MEAN_MOTION": 15.9095338,
    "ECCENTRICITY": 0.0002088,
    "INCLINATION": 42.9995,
    "RA_OF_ASC_NODE": 90.9672,
    "ARG_OF_PERICENTER": 269.2053,
    "MEAN_ANOMALY": 132.9703,
    "EPHEMERIS_TYPE": 0,
    "CLASSIFICATION_TYPE": "U",
    "NORAD_CAT_ID": 58059,
    "ELEMENT_SET_NO": 999,
    "REV_AT_EPOCH": 258,
    "BSTAR": -0.002669,
    "MEAN_MOTION_DOT": -0.00798912,
    "MEAN_MOTION_DDOT": 0
  },
  {
    "OBJECT_NAME": "STARLINK-30558",
    "OBJECT_ID": "2023-158K",
    "EPOCH": "2023-10-22T14:00:01.000224",
    "MEAN_MOTION": 15.90462783,
    "ECCENTRICITY": 0.0001926,
    "INCLINATION": 42.9998,
    "RA_OF_ASC_NODE": 91.0061,
    "ARG_OF_PERICENTER": 271.9466,
    "MEAN_ANOMALY": 115.1081,
    "EPHEMERIS_TYPE": 0,
    "CLASSIFICATION_TYPE": "U",
    "NORAD_CAT_ID": 58060,
    "ELEMENT_SET_NO": 999,
    "REV_AT_EPOCH": 258,
    "BSTAR": -0.0025138,
    "MEAN_MOTION_DOT": -0.00738494,
    "MEAN_MOTION_DDOT": 0
  },
  {
    "OBJECT_NAME": "STARLINK-30579",
    "OBJECT_ID": "2023-158L",
    "EPOCH": "2023-10-22T14:00:01.000224",
    "MEAN_MOTION": 15.91033937,
    "ECCENTRICITY": 0.0001927,
    "INCLINATION": 42.9995,
    "RA_OF_ASC_NODE": 90.962,
    "ARG_OF_PERICENTER": 268.373,
    "MEAN_ANOMALY": 136.0463,
    "EPHEMERIS_TYPE": 0,
    "CLASSIFICATION_TYPE": "U",
    "NORAD_CAT_ID": 58061,
    "ELEMENT_SET_NO": 999,
    "REV_AT_EPOCH": 258,
    "BSTAR": -0.0027072,
    "MEAN_MOTION_DOT": -0.00812444,
    "MEAN_MOTION_DDOT": 0
  },
  {
    "OBJECT_NAME": "STARLINK-30588",
    "OBJECT_ID": "2023-158M",
    "EPOCH": "2023-10-22T14:00:01.000224",
    "MEAN_MOTION": 15.9126428,
    "ECCENTRICITY": 0.0001989,
    "INCLINATION": 42.9994,
    "RA_OF_ASC_NODE": 90.9438,
    "ARG_OF_PERICENTER": 265.0473,
    "MEAN_ANOMALY": 146.5931,
    "EPHEMERIS_TYPE": 0,
    "CLASSIFICATION_TYPE": "U",
    "NORAD_CAT_ID": 58062,
    "ELEMENT_SET_NO": 999,
    "REV_AT_EPOCH": 258,
    "BSTAR": -0.0027741,
    "MEAN_MOTION_DOT": -0.00920191,
    "MEAN_MOTION_DDOT": 0.00025782
  },
  {
    "OBJECT_NAME": "STARLINK-30585",
    "OBJECT_ID": "2023-158N",
    "EPOCH": "2023-10-22T14:00:01.000224",
    "MEAN_MOTION": 15.91189227,
    "ECCENTRICITY": 0.0001823,
    "INCLINATION": 42.9996,
    "RA_OF_ASC_NODE": 90.9494,
    "ARG_OF_PERICENTER": 272.697,
    "MEAN_ANOMALY": 136.7323,
    "EPHEMERIS_TYPE": 0,
    "CLASSIFICATION_TYPE": "U",
    "NORAD_CAT_ID": 58063,
    "ELEMENT_SET_NO": 999,
    "REV_AT_EPOCH": 258,
    "BSTAR": -0.0027515,
    "MEAN_MOTION_DOT": -0.00909226,
    "MEAN_MOTION_DDOT": 0.00025206
  },
  {
    "OBJECT_NAME": "STARLINK-30587",
    "OBJECT_ID": "2023-158P",
    "EPOCH": "2023-10-22T14:00:01.000224",
    "MEAN_MOTION": 15.91080909,
    "ECCENTRICITY": 0.0001866,
    "INCLINATION": 42.9996,
    "RA_OF_ASC_NODE": 90.9584,
    "ARG_OF_PERICENTER": 271.6123,
    "MEAN_ANOMALY": 134.3793,
    "EPHEMERIS_TYPE": 0,
    "CLASSIFICATION_TYPE": "U",
    "NORAD_CAT_ID": 58064,
    "ELEMENT_SET_NO": 999,
    "REV_AT_EPOCH": 249,
    "BSTAR": -0.0027178,
    "MEAN_MOTION_DOT": -0.00817162,
    "MEAN_MOTION_DDOT": 0
  },
  {
    "OBJECT_NAME": "STARLINK-30576",
    "OBJECT_ID": "2023-158Q",
    "EPOCH": "2023-10-22T14:00:01.000224",
    "MEAN_MOTION": 15.90543104,
    "ECCENTRICITY": 0.0005134,
    "INCLINATION": 43,
    "RA_OF_ASC_NODE": 91.0008,
    "ARG_OF_PERICENTER": 248.5294,
    "MEAN_ANOMALY": 140.7443,
    "EPHEMERIS_TYPE": 0,
    "CLASSIFICATION_TYPE": "U",
    "NORAD_CAT_ID": 58065,
    "ELEMENT_SET_NO": 999,
    "REV_AT_EPOCH": 249,
    "BSTAR": -0.0025487,
    "MEAN_MOTION_DOT": -0.00816251,
    "MEAN_MOTION_DDOT": 0.00020584
  },
  {
    "OBJECT_NAME": "STARLINK-30571",
    "OBJECT_ID": "2023-158R",
    "EPOCH": "2023-10-22T14:00:01.000224",
    "MEAN_MOTION": 15.90620787,
    "ECCENTRICITY": 0.0003604,
    "INCLINATION": 43.0001,
    "RA_OF_ASC_NODE": 90.9951,
    "ARG_OF_PERICENTER": 251.7133,
    "MEAN_ANOMALY": 139.8278,
    "EPHEMERIS_TYPE": 0,
    "CLASSIFICATION_TYPE": "U",
    "NORAD_CAT_ID": 58066,
    "ELEMENT_SET_NO": 999,
    "REV_AT_EPOCH": 258,
    "BSTAR": -0.0025677,
    "MEAN_MOTION_DOT": -0.00759459,
    "MEAN_MOTION_DDOT": 0
  },
  {
    "OBJECT_NAME": "STARLINK-30567",
    "OBJECT_ID": "2023-158S",
    "EPOCH": "2023-10-22T14:00:01.000224",
    "MEAN_MOTION": 15.91120976,
    "ECCENTRICITY": 0.0001521,
    "INCLINATION": 43.0003,
    "RA_OF_ASC_NODE": 90.9555,
    "ARG_OF_PERICENTER": 273.1007,
    "MEAN_ANOMALY": 134.3593,
    "EPHEMERIS_TYPE": 0,
    "CLASSIFICATION_TYPE": "U",
    "NORAD_CAT_ID": 58067,
    "ELEMENT_SET_NO": 999,
    "REV_AT_EPOCH": 258,
    "BSTAR": -0.0027108,
    "MEAN_MOTION_DOT": -0.00816663,
    "MEAN_MOTION_DDOT": 0
  },
  {
    "OBJECT_NAME": "STARLINK-30569",
    "OBJECT_ID": "2023-158T",
    "EPOCH": "2023-10-22T14:00:01.000224",
    "MEAN_MOTION": 15.91294664,
    "ECCENTRICITY": 0.0001882,
    "INCLINATION": 42.9997,
    "RA_OF_ASC_NODE": 90.9407,
    "ARG_OF_PERICENTER": 279.73,
    "MEAN_ANOMALY": 133.1913,
    "EPHEMERIS_TYPE": 0,
    "CLASSIFICATION_TYPE": "U",
    "NORAD_CAT_ID": 58068,
    "ELEMENT_SET_NO": 999,
    "REV_AT_EPOCH": 258,
    "BSTAR": -0.0027639,
    "MEAN_MOTION_DOT": -0.00918246,
    "MEAN_MOTION_DDOT": 0.0002569
  },
  {
    "OBJECT_NAME": "STARLINK-30480",
    "OBJECT_ID": "2023-158U",
    "EPOCH": "2023-10-22T14:00:01.000224",
    "MEAN_MOTION": 15.91377391,
    "ECCENTRICITY": 0.0001586,
    "INCLINATION": 42.9998,
    "RA_OF_ASC_NODE": 90.9342,
    "ARG_OF_PERICENTER": 274.8121,
    "MEAN_ANOMALY": 140.556,
    "EPHEMERIS_TYPE": 0,
    "CLASSIFICATION_TYPE": "U",
    "NORAD_CAT_ID": 58069,
    "ELEMENT_SET_NO": 999,
    "REV_AT_EPOCH": 258,
    "BSTAR": -0.0027934,
    "MEAN_MOTION_DOT": -0.00931865,
    "MEAN_MOTION_DDOT": 0.0002641
  },
  {
    "OBJECT_NAME": "STARLINK-30532",
    "OBJECT_ID": "2023-158V",
    "EPOCH": "2023-10-22T14:00:01.000224",
    "MEAN_MOTION": 15.9144824,
    "ECCENTRICITY": 0.0002351,
    "INCLINATION": 42.9996,
    "RA_OF_ASC_NODE": 90.9295,
    "ARG_OF_PERICENTER": 254.4782,
    "MEAN_ANOMALY": 162.8369,
    "EPHEMERIS_TYPE": 0,
    "CLASSIFICATION_TYPE": "U",
    "NORAD_CAT_ID": 58070,
    "ELEMENT_SET_NO": 999,
    "REV_AT_EPOCH": 258,
    "BSTAR": -0.0028507,
    "MEAN_MOTION_DOT": -0.00954417,
    "MEAN_MOTION_DDOT": 0.00027606
  },
  {
    "OBJECT_NAME": "STARLINK-30513",
    "OBJECT_ID": "2023-158W",
    "EPOCH": "2023-10-22T14:00:01.000224",
    "MEAN_MOTION": 15.91459025,
    "ECCENTRICITY": 0.0001648,
    "INCLINATION": 42.9995,
    "RA_OF_ASC_NODE": 90.9275,
    "ARG_OF_PERICENTER": 273.1256,
    "MEAN_ANOMALY": 145.0355,
    "EPHEMERIS_TYPE": 0,
    "CLASSIFICATION_TYPE": "U",
    "NORAD_CAT_ID": 58071,
    "ELEMENT_SET_NO": 999,
    "REV_AT_EPOCH": 258,
    "BSTAR": -0.0028239,
    "MEAN_MOTION_DOT": -0.00945918,
    "MEAN_MOTION_DDOT": 0.00027162
  },
  {
    "OBJECT_NAME": "STARLINK-30506",
    "OBJECT_ID": "2023-158X",
    "EPOCH": "2023-10-22T14:00:01.000224",
    "MEAN_MOTION": 15.91524956,
    "ECCENTRICITY": 0.0001666,
    "INCLINATION": 42.9991,
    "RA_OF_ASC_NODE": 90.9222,
    "ARG_OF_PERICENTER": 276.1934,
    "MEAN_ANOMALY": 144.0088,
    "EPHEMERIS_TYPE": 0,
    "CLASSIFICATION_TYPE": "U",
    "NORAD_CAT_ID": 58072,
    "ELEMENT_SET_NO": 999,
    "REV_AT_EPOCH": 243,
    "BSTAR": -0.0028488,
    "MEAN_MOTION_DOT": -0.00957427,
    "MEAN_MOTION_DDOT": 0.00027786
  }
]
