STARLINK-30582          
1 58059U 23158J   23295.58334491 -.00798912  00000+0 -26690-2 0  9996
2 58059  42.9995  90.9672 0002088 269.2053 132.9703 15.90953380  2588
STARLINK-30558          
1 58060U 23158K   23295.58334491 -.00738494  00000+0 -25138-2 0  9993
2 58060  42.9998  91.0061 0001926 271.9466 115.1081 15.90462783  2589
STARLINK-30579          
1 58061U 23158L   23295.58334491 -.00812444  00000+0 -27072-2 0  9991
2 58061  42.9995  90.9620 0001927 268.3730 136.0463 15.91033937  2583
STARLINK-30588          
1 58062U 23158M   23295.58334491 -.00920191  25782-3 -27741-2 0  9992
2 58062  42.9994  90.9438 0001989 265.0473 146.5931 15.91264280  2589
STARLINK-30585          
1 58063U 23158N   23295.58334491 -.00909226  25206-3 -27515-2 0  9999
2 58063  42.9996  90.9494 0001823 272.6970 136.7323 15.91189227  2580
STARLINK-30587          
1 58064U 23158P   23295.58334491 -.00817162  00000+0 -27178-2 0  9993
2 58064  42.9996  90.9584 0001866 271.6123 134.3793 15.91080909  2499
STARLINK-30576          
1 58065U 23158Q   23295.58334491 -.00816251  20584-3 -25487-2 0  9996
2 58065  43.0000  91.0008 0005134 248.5294 140.7443 15.90543104  2498
STARLINK-30571          
1 58066U 23158R   23295.58334491 -.00759459  00000+0 -25677-2 0  9991
2 58066  43.0001  90.9951 0003604 251.7133 139.8278 15.90620787  2581
STARLINK-30567          
1 58067U 23158S   23295.58334491 -.00816663  00000+0 -27108-2 0  9994
2 58067  43.0003  90.9555 0001521 273.1007 134.3593 15.91120976  2584
STARLINK-30569          
1 58068U 23158T   23295.58334491 -.00918246  25690-3 -27639-2 0  9990
2 58068  42.9997  90.9407 0001882 279.7300 133.1913 15.91294664  2588
STARLINK-30480          
1 58069U 23158U   23295.58334491 -.00931865  26410-3 -27934-2 0  9992
2 58069  42.9998  90.9342 0001586 274.8121 140.5560 15.91377391  2585
STARLINK-30532          
1 58070U 23158V   23295.58334491 -.00954417  27606-3 -28507-2 0  9997
2 58070  42.9996  90.9295 0002351 254.4782 162.8369 15.91448240  2586
STARLINK-30513          
1 58071U 23158W   23295.58334491 -.00945918  27162-3 -28239-2 0  9993
2 58071  42.9995  90.9275 0001648 273.1256 145.0355 15.91459025  2587
STARLINK-30506          
1 58072U 23158X   23295.58334491 -.00957427  27786-3 -28488-2 0  9990
2 58072  42.9991  90.9222 0001666 276.1934 144.0088 15.91524956  2434
